ORBCOMM FM115 [+]       
1 41186U 15081H   23229.65040760  .00000925  00000+0  22734-3 0  9997
2 41186  47.0008 336.6257 0001577 246.2943 113.7777 14.59831768409865
ORBCOMM FM108 [+]       
1 41187U 15081J   23229.15879910  .00000981  00000+0  25946-3 0  9990
2 41187  47.0061  24.9278 0002211 141.8584 218.2458 14.55829084409177
ORBCOMM FM117 [+]       
1 41188U 15081K   23228.71201098  .00000961  00000+0  25482-3 0  9991
2 41188  47.0022  26.0058 0003015 145.8824 214.2255 14.55828135409120
ORBCOMM FM116 [+]       
1 41189U 15081L   23229.11382529  .00000902  00000+0  24140-3 0  9991
2 41189  47.0018 113.9205 0002113 235.2589 124.8097 14.55829652408018
